{
    "links": {
        "self": "http://www.neowsapp.com/rest/v1/neo/3164408?api_key=iIulBulltgU6a56xZRHN4H3l9WmuAYTsLGpBGhQ2"
    },
    "id": "3164408",
    "neo_reference_id": "3164408",
    "name": "(2003 UE22)",
    "designation": "2003 UE22",
    "nasa_jpl_url": "http://ssd.jpl.nasa.gov/sbdb.cgi?sstr=3164408",
    "absolute_magnitude_h": 24.7,
    "estimated_diameter": {
        "kilometers": {
            "estimated_diameter_min": 0.0305179233,
            "estimated_diameter_max": 0.0682401509
        },
        "meters": {
            "estimated_diameter_min": 30.5179232594,
            "estimated_diameter_max": 68.2401509401
        },
        "miles": {
            "estimated_diameter_min": 0.0189629525,
            "estimated_diameter_max": 0.0424024508
        },
        "feet": {
            "estimated_diameter_min": 100.1244233463,
            "estimated_diameter_max": 223.8850168104
        }
    },
    "is_potentially_hazardous_asteroid": false,
    "close_approach_data": [
        {
            "close_approach_date": "2003-10-21",
            "close_approach_date_full": "2003-Oct-21 21:16",
            "epoch_date_close_approach": 1066770960000,
            "relative_velocity": {
                "kilometers_per_second": "7.6979665949",
                "kilometers_per_hour": "27712.6797415446",
                "miles_per_hour": "17219.5814760726"
            },
            "miss_distance": {
                "astronomical": "0.0676165918",
                "lunar": "26.3028542102",
                "kilometers": "10115298.109939466",
                "miles": "6285354.7897419908"
            },
            "orbiting_body": "Earth"
        }
    ],
    "orbital_data": {
        "orbit_id": "11",
        "orbit_determination_date": "2017-04-06 09:13:36",
        "first_observation_date": "2003-10-23",
        "last_observation_date": "2003-11-05",
        "data_arc_in_days": 13,
        "observations_used": 48,
        "orbit_uncertainty": "8",
        "minimum_orbit_intersection": ".0663619",
        "jupiter_tisserand_invariant": "3.338",
        "epoch_osculation": "2452939.5",
        "eccentricity": ".5457474890457132",
        "semi_major_axis": "2.337333920525758",
        "inclination": "8.121077238463249",
        "ascending_node_longitude": "29.54835743200412",
        "orbital_period": "1305.207526774109",
        "perihelion_distance": "1.061739802337453",
        "perihelion_argument": "355.6864031826684",
        "aphelion_distance": "3.612928038714063",
        "perihelion_time": "2452932.446955672246",
        "mean_anomaly": "1.945358041465599",
        "mean_motion": ".2758182071549644",
        "equinox": "J2000",
        "orbit_class": {
            "orbit_class_type": "AMO",
            "orbit_class_description": "Near-Earth asteroid orbits similar to that of 1221 Amor",
            "orbit_class_range": "1.017 AU < q (perihelion) < 1.3 AU"
        }
    },
    "is_sentry_object": false
}